[{"OBJECT_NAME":"PROBA-1","OBJECT_ID":"2001-049B","EPOCH":"2026-03-05T05:48:53.855136","MEAN_MOTION":15.06992313,"ECCENTRICITY":0.0056955,"INCLINATION":97.962,"RA_OF_ASC_NODE":69.1663,"ARG_OF_PERICENTER":113.6339,"MEAN_ANOMALY":247.088,"EPHEMERIS_TYPE":0,"CLASSIFICATION_TYPE":"U","NORAD_CAT_ID":26958,"ELEMENT_SET_NO":999,"REV_AT_EPOCH":32796,"BSTAR":0.00017751683,"MEAN_MOTION_DOT":2.686e-5,"MEAN_MOTION_DDOT":0},{"OBJECT_NAME":"CUTE-1 (CO-55)","OBJECT_ID":"2003-031E","EPOCH":"2026-03-04T23:56:20.901696","MEAN_MOTION":14.24261503,"ECCENTRICITY":0.00105298,"INCLINATION":98.6779,"RA_OF_ASC_NODE":73.8545,"ARG_OF_PERICENTER":124.7056,"MEAN_ANOMALY":235.5116,"EPHEMERIS_TYPE":0,"CLASSIFICATION_TYPE":"U","NORAD_CAT_ID":27844,"ELEMENT_SET_NO":999,"REV_AT_EPOCH":17684,"BSTAR":0.00020884486,"MEAN_MOTION_DOT":4.38e-6,"MEAN_MOTION_DDOT":0},{"OBJECT_NAME":"CUBESAT XI-IV (CO-57)","OBJECT_ID":"2003-031J","EPOCH":"2026-03-03T22:47:58.788672","MEAN_MOTION":14.23556668,"ECCENTRICITY":0.0010137,"INCLINATION":98.6808,"RA_OF_ASC_NODE":72.6171,"ARG_OF_PERICENTER":144.034,"MEAN_ANOMALY":216.1522,"EPHEMERIS_TYPE":0,"CLASSIFICATION_TYPE":"U","NORAD_CAT_ID":27848,"ELEMENT_SET_NO":999,"REV_AT_EPOCH":17640,"BSTAR":0.00019861,"MEAN_MOTION_DOT":4.09e-6,"MEAN_MOTION_DDOT":0},{"OBJECT_NAME":"APRIZESAT 4","OBJECT_ID":"2009-041D","EPOCH":"2026-03-05T04:53:30.270912","MEAN_MOTION":14.83698793,"ECCENTRICITY":0.00422344,"INCLINATION":98.1494,"RA_OF_ASC_NODE":137.4339,"ARG_OF_PERICENTER":299.6843,"MEAN_ANOMALY":60.0169,"EPHEMERIS_TYPE":0,"CLASSIFICATION_TYPE":"U","NORAD_CAT_ID":35684,"ELEMENT_SET_NO":999,"REV_AT_EPOCH":89594,"BSTAR":0.00015110476,"MEAN_MOTION_DOT":1.209e-5,"MEAN_MOTION_DDOT":0},{"OBJECT_NAME":"APRIZESAT 3","OBJECT_ID":"2009-041F","EPOCH":"2026-03-04T23:05:17.208672","MEAN_MOTION":14.95878423,"ECCENTRICITY":0.00632193,"INCLINATION":98.1891,"RA_OF_ASC_NODE":212.3098,"ARG_OF_PERICENTER":52.2024,"MEAN_ANOMALY":308.4897,"EPHEMERIS_TYPE":0,"CLASSIFICATION_TYPE":"U","NORAD_CAT_ID":35686,"ELEMENT_SET_NO":999,"REV_AT_EPOCH":90079,"BSTAR":0.00026617496,"MEAN_MOTION_DOT":3.03e-5,"MEAN_MOTION_DDOT":0},{"OBJECT_NAME":"PROBA-2","OBJECT_ID":"2009-059B","EPOCH":"2026-03-05T05:59:17.552544","MEAN_MOTION":14.54787654,"ECCENTRICITY":0.00121572,"INCLINATION":98.2427,"RA_OF_ASC_NODE":249.0447,"ARG_OF_PERICENTER":239.0187,"MEAN_ANOMALY":120.9817,"EPHEMERIS_TYPE":0,"CLASSIFICATION_TYPE":"U","NORAD_CAT_ID":36037,"ELEMENT_SET_NO":999,"REV_AT_EPOCH":86641,"BSTAR":0.00011432362,"MEAN_MOTION_DOT":4.45e-6,"MEAN_MOTION_DDOT":0},{"OBJECT_NAME":"APRIZESAT 5","OBJECT_ID":"2011-044E","EPOCH":"2026-03-05T05:29:02.037120","MEAN_MOTION":14.80840735,"ECCENTRICITY":0.00520352,"INCLINATION":98.2403,"RA_OF_ASC_NODE":354.3775,"ARG_OF_PERICENTER":339.0171,"MEAN_ANOMALY":20.8905,"EPHEMERIS_TYPE":0,"CLASSIFICATION_TYPE":"U","NORAD_CAT_ID":37792,"ELEMENT_SET_NO":999,"REV_AT_EPOCH":78340,"BSTAR":0.00027297719,"MEAN_MOTION_DOT":2.096e-5,"MEAN_MOTION_DDOT":0},{"OBJECT_NAME":"APRIZESAT 6","OBJECT_ID":"2011-044F","EPOCH":"2026-03-05T05:24:41.345856","MEAN_MOTION":14.76741062,"ECCENTRICITY":0.00444498,"INCLINATION":98.2422,"RA_OF_ASC_NODE":332.5858,"ARG_OF_PERICENTER":59.426,"MEAN_ANOMALY":64.2725,"EPHEMERIS_TYPE":0,"CLASSIFICATION_TYPE":"U","NORAD_CAT_ID":37793,"ELEMENT_SET_NO":999,"REV_AT_EPOCH":78180,"BSTAR":0.00019896788,"MEAN_MOTION_DOT":1.36e-5,"MEAN_MOTION_DDOT":0},{"OBJECT_NAME":"PROBA-V","OBJECT_ID":"2013-021A","EPOCH":"2026-03-04T11:08:36.641472","MEAN_MOTION":14.23572178,"ECCENTRICITY":0.00053884,"INCLINATION":98.3498,"RA_OF_ASC_NODE":47.291,"ARG_OF_PERICENTER":81.8512,"MEAN_ANOMALY":278.3278,"EPHEMERIS_TYPE":0,"CLASSIFICATION_TYPE":"U","NORAD_CAT_ID":39159,"ELEMENT_SET_NO":999,"REV_AT_EPOCH":66621,"BSTAR":7.546599e-5,"MEAN_MOTION_DOT":1.31e-6,"MEAN_MOTION_DDOT":0},{"OBJECT_NAME":"APRIZESAT 7","OBJECT_ID":"2013-066A","EPOCH":"2026-03-04T10:11:13.373376","MEAN_MOTION":14.91263069,"ECCENTRICITY":0.00354116,"INCLINATION":97.759,"RA_OF_ASC_NODE":18.2464,"ARG_OF_PERICENTER":196.3756,"MEAN_ANOMALY":163.6322,"EPHEMERIS_TYPE":0,"CLASSIFICATION_TYPE":"U","NORAD_CAT_ID":39416,"ELEMENT_SET_NO":999,"REV_AT_EPOCH":66561,"BSTAR":0.00024805095,"MEAN_MOTION_DOT":2.44e-5,"MEAN_MOTION_DDOT":0},{"OBJECT_NAME":"APRIZESAT 8","OBJECT_ID":"2013-066K","EPOCH":"2026-03-05T06:45:56.131488","MEAN_MOTION":14.87408811,"ECCENTRICITY":0.00445921,"INCLINATION":97.8113,"RA_OF_ASC_NODE":13.2866,"ARG_OF_PERICENTER":267.9601,"MEAN_ANOMALY":91.6508,"EPHEMERIS_TYPE":0,"CLASSIFICATION_TYPE":"U","NORAD_CAT_ID":39425,"ELEMENT_SET_NO":999,"REV_AT_EPOCH":66422,"BSTAR":0.00022071752,"MEAN_MOTION_DOT":1.975e-5,"MEAN_MOTION_DDOT":0},{"OBJECT_NAME":"BUGSAT-1 (TITA)","OBJECT_ID":"2014-033E","EPOCH":"2026-03-05T06:39:49.635648","MEAN_MOTION":15.144284,"ECCENTRICITY":0.00291457,"INCLINATION":98.0442,"RA_OF_ASC_NODE":150.8518,"ARG_OF_PERICENTER":173.1589,"MEAN_ANOMALY":187.0045,"EPHEMERIS_TYPE":0,"CLASSIFICATION_TYPE":"U","NORAD_CAT_ID":40014,"ELEMENT_SET_NO":999,"REV_AT_EPOCH":64010,"BSTAR":0.00035408904,"MEAN_MOTION_DOT":6.5e-5,"MEAN_MOTION_DDOT":0},{"OBJECT_NAME":"SAUDISAT 4","OBJECT_ID":"2014-033G","EPOCH":"2026-03-05T05:37:05.905632","MEAN_MOTION":14.79380173,"ECCENTRICITY":0.00459973,"INCLINATION":97.7402,"RA_OF_ASC_NODE":214.0668,"ARG_OF_PERICENTER":52.9263,"MEAN_ANOMALY":307.6141,"EPHEMERIS_TYPE":0,"CLASSIFICATION_TYPE":"U","NORAD_CAT_ID":40016,"ELEMENT_SET_NO":999,"REV_AT_EPOCH":63070,"BSTAR":0.0001646601,"MEAN_MOTION_DOT":1.197e-5,"MEAN_MOTION_DDOT":0},{"OBJECT_NAME":"APRIZESAT 9","OBJECT_ID":"2014-033J","EPOCH":"2026-03-05T06:55:01.077024","MEAN_MOTION":14.74062006,"ECCENTRICITY":0.00665355,"INCLINATION":97.8873,"RA_OF_ASC_NODE":200.1374,"ARG_OF_PERICENTER":173.2528,"MEAN_ANOMALY":186.9593,"EPHEMERIS_TYPE":0,"CLASSIFICATION_TYPE":"U","NORAD_CAT_ID":40018,"ELEMENT_SET_NO":999,"REV_AT_EPOCH":62825,"BSTAR":0.00023039379,"MEAN_MOTION_DOT":1.519e-5,"MEAN_MOTION_DDOT":0},{"OBJECT_NAME":"APRIZESAT 10","OBJECT_ID":"2014-033K","EPOCH":"2026-03-05T07:30:29.662848","MEAN_MOTION":14.70742658,"ECCENTRICITY":0.00778087,"INCLINATION":97.9471,"RA_OF_ASC_NODE":193.6987,"ARG_OF_PERICENTER":245.0868,"MEAN_ANOMALY":114.2238,"EPHEMERIS_TYPE":0,"CLASSIFICATION_TYPE":"U","NORAD_CAT_ID":40019,"ELEMENT_SET_NO":999,"REV_AT_EPOCH":62698,"BSTAR":0.00019027101,"MEAN_MOTION_DOT":1.162e-5,"MEAN_MOTION_DDOT":0},{"OBJECT_NAME":"TECHDEMOSAT-1 (TDS-1)","OBJECT_ID":"2014-037H","EPOCH":"2026-03-05T05:19:58.068768","MEAN_MOTION":15.11455779,"ECCENTRICITY":0.00045995,"INCLINATION":98.3772,"RA_OF_ASC_NODE":46.3097,"ARG_OF_PERICENTER":258.0854,"MEAN_ANOMALY":101.9858,"EPHEMERIS_TYPE":0,"CLASSIFICATION_TYPE":"U","NORAD_CAT_ID":40076,"ELEMENT_SET_NO":999,"REV_AT_EPOCH":63251,"BSTAR":0.00081810229,"MEAN_MOTION_DOT":0.00013781,"MEAN_MOTION_DDOT":0}]
