PROBA-1                 
1 26958U 01049B   26064.24228999  .00002686  00000+0  17752-3 0  9993
2 26958  97.9620  69.1663 0056955 113.6339 247.0880 15.06992313327967
CUTE-1 (CO-55)          
1 27844U 03031E   26063.99746414  .00000438  00000+0  20884-3 0  9992
2 27844  98.6779  73.8545 0010529 124.7056 235.5116 14.24261503176844
CUBESAT XI-IV (CO-57)   
1 27848U 03031J   26062.94998598  .00000409  00000+0  19861-3 0  9993
2 27848  98.6808  72.6171 0010137 144.0340 216.1522 14.23556668176405
APRIZESAT 4             
1 35684U 09041D   26064.20382258  .00001209  00000+0  15110-3 0  9990
2 35684  98.1494 137.4339 0042234 299.6843  60.0169 14.83698793895944
APRIZESAT 3             
1 35686U 09041F   26063.96200473  .00003030  00000+0  26617-3 0  9990
2 35686  98.1891 212.3098 0063219  52.2024 308.4897 14.95878423900792
PROBA-2                 
1 36037U 09059B   26064.24950871  .00000445  00000+0  11432-3 0  9992
2 36037  98.2427 249.0447 0012157 239.0187 120.9817 14.54787654866413
APRIZESAT 5             
1 37792U 11044E   26064.22849580  .00002096  00000+0  27298-3 0  9991
2 37792  98.2403 354.3775 0052035 339.0171  20.8905 14.80840735783405
APRIZESAT 6             
1 37793U 11044F   26064.22547854  .00001360  00000+0  19897-3 0  9990
2 37793  98.2422 332.5858 0044449  59.4260  64.2725 14.76741062781801
PROBA-V                 
1 39159U 13021A   26063.46431298  .00000131  00000+0  75466-4 0  9994
2 39159  98.3498  47.2910 0005388  81.8512 278.3278 14.23572178666210
APRIZESAT 7             
1 39416U 13066A   26063.42446034  .00002440  00000+0  24805-3 0  9994
2 39416  97.7590  18.2464 0035411 196.3756 163.6322 14.91263069665616
APRIZESAT 8             
1 39425U 13066K   26064.28189967  .00001975  00000+0  22072-3 0  9994
2 39425  97.8113  13.2866 0044592 267.9601  91.6508 14.87408811664226
BUGSAT-1 (TITA)         
1 40014U 14033E   26064.27765782  .00006500  00000+0  35409-3 0  9996
2 40014  98.0442 150.8518 0029145 173.1589 187.0045 15.14428400640106
SAUDISAT 4              
1 40016U 14033G   26064.23409613  .00001197  00000+0  16466-3 0  9991
2 40016  97.7402 214.0668 0045997  52.9263 307.6141 14.79380173630701
APRIZESAT 9             
1 40018U 14033J   26064.28820691  .00001519  00000+0  23039-3 0  9993
2 40018  97.8873 200.1374 0066535 173.2528 186.9593 14.74062006628251
APRIZESAT 10            
1 40019U 14033K   26064.31284332  .00001162  00000+0  19027-3 0  9990
2 40019  97.9471 193.6987 0077808 245.0868 114.2238 14.70742658626985
TECHDEMOSAT-1 (TDS-1)   
1 40076U 14037H   26064.22219987  .00013781  00000+0  81810-3 0  9990
2 40076  98.3772  46.3097 0004599 258.0854 101.9858 15.11455779632517
